ECHOSTAR 25             
1 68126U 26045A   26070.41163373  .00000389  00000+0  64833-4 0  9990
2 68126  26.8991  70.3993 6209398 175.3735 195.5868  3.74430284    51
